*******************************************************************************
Ephemeris / WWW_USER Mon Jul 15 19:25:35 2024 Pasadena, USA      / Horizons    
*******************************************************************************
Target body name: (2018 RA1)                      {source: JPL#6}
Center body name: Earth (399)                     {source: DE441}
Center-site name: Gemini South Obs., Cerro Pachon
*******************************************************************************
Start time      : A.D. 2019-Jan-27 23:53:00.0000 UT      
Stop  time      : A.D. 2019-Jan-28 09:58:00.0000 UT      
Step-size       : 1 minutes
*******************************************************************************
Target pole/equ : undefined
Target radii    : undefined                                                    
Center geodetic : 289.2634, -30.2406227, 2.71233  {E-lon(deg),Lat(deg),Alt(km)}
Center cylindric: 289.2634,5517.21435,-3194.81213 {E-lon(deg),Dxy(km),Dz(km)}
Center pole/equ : ITRF93                          {East-longitude positive}
Center radii    : 6378.137, 6378.137, 6356.752 km {Equator_a, b, pole_c}       
Target primary  : Sun
Vis. interferer : MOON (R_eq= 1737.400) km        {source: DE441}
Rel. light bend : Sun                             {source: DE441}
Rel. lght bnd GM: 1.3271E+11 km^3/s^2                                          
Small-body perts: Yes                             {source: SB441-N16}
Atmos refraction: NO (AIRLESS)
RA format       : HMS
Time format     : CAL 
Calendar mode   : Mixed Julian/Gregorian
RTS-only print  : NO       
EOP file        : eop.240715.p241008                                           
EOP coverage    : DATA-BASED 1962-JAN-20 TO 2024-JUL-15. PREDICTS-> 2024-OCT-07
Units conversion: 1 au= 149597870.700 km, c= 299792.458 km/s, 1 day= 86400.0 s 
Table cut-offs 1: Elevation (-90.0deg=NO ),Airmass (>38.000=NO), Daylight (YES)
Table cut-offs 2: Solar elongation (  0.0,180.0=NO ),Local Hour Angle( 0.0=NO )
Table cut-offs 3: RA/DEC angular rate (     0.0=NO )                           
*******************************************************************************
Initial IAU76/J2000 heliocentric ecliptic osculating elements (au, days, deg.):
  EPOCH=  2458369.5 ! 2018-Sep-08.00 (TDB)         Residual RMS= .21275        
   EC= .3232115344739424   QR= .7703453101153647   TP= 2458436.6763547547      
   OM= 166.2054176892707   W=  269.7217787981747   IN= 8.763099478405824       
  Equivalent ICRF heliocentric cartesian coordinates (au, au/d):
   X= 9.899686155013647E-01  Y=-2.468208982240139E-01  Z=-1.030323866474361E-01
  VX=-9.411283005844916E-04 VY= 1.717513364149167E-02 VZ= 4.613440841260365E-03
Asteroid physical parameters (km, seconds, rotational period in hours):        
   GM= n.a.                RAD= n.a.               ROTPER= n.a.                
   H= 26.4                 G= .150                 B-V= n.a.                   
                           ALBEDO= n.a.            STYP= n.a.                  
*******************************************************************************
 Date__(UT)__HR:MN     R.A._________(ICRF)_________DEC
******************************************************
$$SOE
 2019-Jan-28 01:56     15 31 30.810952 -17 32 50.34298
 2019-Jan-28 01:57     15 31 30.920387 -17 32 50.26705
 2019-Jan-28 01:58     15 31 31.029814 -17 32 50.19115
 2019-Jan-28 01:59     15 31 31.139235 -17 32 50.11530
 2019-Jan-28 02:00     15 31 31.248647 -17 32 50.03948
 2019-Jan-28 02:01     15 31 31.358053 -17 32 49.96371
 2019-Jan-28 02:02     15 31 31.467450 -17 32 49.88798
 2019-Jan-28 02:03     15 31 31.576840 -17 32 49.81228
 2019-Jan-28 02:04     15 31 31.686223 -17 32 49.73663
 2019-Jan-28 02:05     15 31 31.795598 -17 32 49.66101
 2019-Jan-28 02:06     15 31 31.904965 -17 32 49.58544
 2019-Jan-28 02:07     15 31 32.014324 -17 32 49.50990
 2019-Jan-28 02:08     15 31 32.123676 -17 32 49.43440
 2019-Jan-28 02:09     15 31 32.233020 -17 32 49.35894
 2019-Jan-28 02:10     15 31 32.342356 -17 32 49.28352
 2019-Jan-28 02:11     15 31 32.451683 -17 32 49.20814
 2019-Jan-28 02:12     15 31 32.561003 -17 32 49.13279
 2019-Jan-28 02:13     15 31 32.670315 -17 32 49.05749
 2019-Jan-28 02:14     15 31 32.779619 -17 32 48.98222
 2019-Jan-28 02:15     15 31 32.888915 -17 32 48.90699
 2019-Jan-28 02:16     15 31 32.998202 -17 32 48.83180
 2019-Jan-28 02:17     15 31 33.107482 -17 32 48.75665
 2019-Jan-28 02:18     15 31 33.216753 -17 32 48.68153
 2019-Jan-28 02:19     15 31 33.326016 -17 32 48.60645
 2019-Jan-28 02:20     15 31 33.435270 -17 32 48.53141
 2019-Jan-28 02:21     15 31 33.544516 -17 32 48.45640
 2019-Jan-28 02:22     15 31 33.653754 -17 32 48.38144
 2019-Jan-28 02:23     15 31 33.762983 -17 32 48.30650
 2019-Jan-28 02:24     15 31 33.872204 -17 32 48.23161
 2019-Jan-28 02:25     15 31 33.981416 -17 32 48.15675
 2019-Jan-28 02:26     15 31 34.090620 -17 32 48.08193
 2019-Jan-28 02:27     15 31 34.199815 -17 32 48.00714
 2019-Jan-28 02:28     15 31 34.309001 -17 32 47.93240
 2019-Jan-28 02:29     15 31 34.418179 -17 32 47.85768
 2019-Jan-28 02:30     15 31 34.527348 -17 32 47.78300
 2019-Jan-28 02:31     15 31 34.636508 -17 32 47.70836
 2019-Jan-28 02:32     15 31 34.745659 -17 32 47.63376
 2019-Jan-28 02:33     15 31 34.854801 -17 32 47.55918
 2019-Jan-28 02:34     15 31 34.963935 -17 32 47.48465
 2019-Jan-28 02:35     15 31 35.073059 -17 32 47.41015
 2019-Jan-28 02:36     15 31 35.182174 -17 32 47.33568
 2019-Jan-28 02:37     15 31 35.291281 -17 32 47.26125
 2019-Jan-28 02:38     15 31 35.400378 -17 32 47.18685
 2019-Jan-28 02:39     15 31 35.509466 -17 32 47.11249
 2019-Jan-28 02:40     15 31 35.618545 -17 32 47.03816
 2019-Jan-28 02:41     15 31 35.727615 -17 32 46.96386
 2019-Jan-28 02:42     15 31 35.836676 -17 32 46.88960
 2019-Jan-28 02:43     15 31 35.945727 -17 32 46.81537
 2019-Jan-28 02:44     15 31 36.054769 -17 32 46.74118
 2019-Jan-28 02:45     15 31 36.163801 -17 32 46.66702
 2019-Jan-28 02:46     15 31 36.272825 -17 32 46.59289
 2019-Jan-28 02:47     15 31 36.381838 -17 32 46.51879
 2019-Jan-28 02:48     15 31 36.490842 -17 32 46.44473
 2019-Jan-28 02:49     15 31 36.599837 -17 32 46.37070
 2019-Jan-28 02:50     15 31 36.708822 -17 32 46.29671
 2019-Jan-28 02:51     15 31 36.817798 -17 32 46.22274
 2019-Jan-28 02:52     15 31 36.926764 -17 32 46.14881
 2019-Jan-28 02:53     15 31 37.035720 -17 32 46.07491
 2019-Jan-28 02:54     15 31 37.144666 -17 32 46.00104
 2019-Jan-28 02:55     15 31 37.253603 -17 32 45.92720
 2019-Jan-28 02:56     15 31 37.362530 -17 32 45.85340
 2019-Jan-28 02:57     15 31 37.471447 -17 32 45.77962
 2019-Jan-28 02:58     15 31 37.580354 -17 32 45.70588
 2019-Jan-28 02:59     15 31 37.689252 -17 32 45.63216
 2019-Jan-28 03:00     15 31 37.798139 -17 32 45.55848
 2019-Jan-28 03:01     15 31 37.907017 -17 32 45.48483
 2019-Jan-28 03:02     15 31 38.015884 -17 32 45.41121
 2019-Jan-28 03:03     15 31 38.124741 -17 32 45.33762
 2019-Jan-28 03:04     15 31 38.233589 -17 32 45.26406
 2019-Jan-28 03:05     15 31 38.342426 -17 32 45.19053
 2019-Jan-28 03:06     15 31 38.451253 -17 32 45.11703
 2019-Jan-28 03:07     15 31 38.560070 -17 32 45.04355
 2019-Jan-28 03:08     15 31 38.668876 -17 32 44.97011
 2019-Jan-28 03:09     15 31 38.777673 -17 32 44.89670
 2019-Jan-28 03:10     15 31 38.886459 -17 32 44.82331
 2019-Jan-28 03:11     15 31 38.995234 -17 32 44.74996
 2019-Jan-28 03:12     15 31 39.104000 -17 32 44.67663
 2019-Jan-28 03:13     15 31 39.212755 -17 32 44.60333
 2019-Jan-28 03:14     15 31 39.321499 -17 32 44.53006
 2019-Jan-28 03:15     15 31 39.430233 -17 32 44.45682
 2019-Jan-28 03:16     15 31 39.538957 -17 32 44.38360
 2019-Jan-28 03:17     15 31 39.647670 -17 32 44.31042
 2019-Jan-28 03:18     15 31 39.756372 -17 32 44.23726
 2019-Jan-28 03:19     15 31 39.865064 -17 32 44.16412
 2019-Jan-28 03:20     15 31 39.973745 -17 32 44.09102
 2019-Jan-28 03:21     15 31 40.082416 -17 32 44.01794
 2019-Jan-28 03:22     15 31 40.191075 -17 32 43.94489
 2019-Jan-28 03:23     15 31 40.299724 -17 32 43.87186
 2019-Jan-28 03:24     15 31 40.408363 -17 32 43.79886
 2019-Jan-28 03:25     15 31 40.516990 -17 32 43.72589
 2019-Jan-28 03:26     15 31 40.625607 -17 32 43.65294
 2019-Jan-28 03:27     15 31 40.734213 -17 32 43.58002
 2019-Jan-28 03:28     15 31 40.842807 -17 32 43.50712
 2019-Jan-28 03:29     15 31 40.951391 -17 32 43.43425
 2019-Jan-28 03:30     15 31 41.059964 -17 32 43.36141
 2019-Jan-28 03:31     15 31 41.168526 -17 32 43.28858
 2019-Jan-28 03:32     15 31 41.277077 -17 32 43.21579
 2019-Jan-28 03:33     15 31 41.385617 -17 32 43.14302
 2019-Jan-28 03:34     15 31 41.494146 -17 32 43.07027
 2019-Jan-28 03:35     15 31 41.602664 -17 32 42.99755
 2019-Jan-28 03:36     15 31 41.711170 -17 32 42.92485
 2019-Jan-28 03:37     15 31 41.819666 -17 32 42.85217
 2019-Jan-28 03:38     15 31 41.928150 -17 32 42.77952
 2019-Jan-28 03:39     15 31 42.036623 -17 32 42.70689
 2019-Jan-28 03:40     15 31 42.145085 -17 32 42.63428
 2019-Jan-28 03:41     15 31 42.253535 -17 32 42.56170
 2019-Jan-28 03:42     15 31 42.361974 -17 32 42.48914
 2019-Jan-28 03:43     15 31 42.470402 -17 32 42.41660
 2019-Jan-28 03:44     15 31 42.578818 -17 32 42.34409
 2019-Jan-28 03:45     15 31 42.687223 -17 32 42.27159
 2019-Jan-28 03:46     15 31 42.795617 -17 32 42.19912
 2019-Jan-28 03:47     15 31 42.903999 -17 32 42.12667
 2019-Jan-28 03:48     15 31 43.012369 -17 32 42.05424
 2019-Jan-28 03:49     15 31 43.120728 -17 32 41.98184
 2019-Jan-28 03:50     15 31 43.229076 -17 32 41.90945
 2019-Jan-28 03:51     15 31 43.337412 -17 32 41.83709
 2019-Jan-28 03:52     15 31 43.445736 -17 32 41.76474
 2019-Jan-28 03:53     15 31 43.554049 -17 32 41.69242
 2019-Jan-28 03:54     15 31 43.662350 -17 32 41.62011
 2019-Jan-28 03:55     15 31 43.770639 -17 32 41.54783
 2019-Jan-28 03:56     15 31 43.878917 -17 32 41.47557
 2019-Jan-28 03:57     15 31 43.987183 -17 32 41.40332
 2019-Jan-28 03:58     15 31 44.095437 -17 32 41.33110
